NORAD_CAT_ID,OBJECT_NAME,OBJECT_TYPE,EPOCH,MEAN_MOTION,ECCENTRICITY,INCLINATION,RA_OF_ASC_NODE,ARG_OF_PERICENTER,MEAN_ANOMALY,BSTAR,MEAN_MOTION_DOT,MEAN_MOTION_DDOT,TLE_LINE0,TLE_LINE1,TLE_LINE2,SEMIMAJOR_AXIS,PERIOD,APOGEE,PERIGEE,DECAYED
53136.0,STARLINK-4152,PAYLOAD,2024-04-20 21:47:04,15.08812616,0.0001511,53.2184,21.6912,131.7593,228.3528,0.0001411,1.957e-05,0.0,0 STARLINK-4152,1 53136U 22083E   24111.90768647  .00001957  00000-0  14110-3 0  9991,2 53136  53.2184  21.6912 0001511 131.7593 228.3528 15.08812616 98376,6917.964,95.439,540.874,538.784,0.0
53136.0,STARLINK-4152,PAYLOAD,2024-04-21 00:57:50,15.08822641,0.000164,53.2186,21.0928,125.9807,234.1337,-0.00037018,-6.172e-05,0.0,0 STARLINK-4152,1 53136U 22083E   24112.04016717 -.00006172  00000-0 -37018-3 0  9999,2 53136  53.2186  21.0928 0001640 125.9807 234.1337 15.08822641 98030,6917.933,95.439,540.933,538.664,0.0
53136.0,STARLINK-4152,PAYLOAD,2024-04-21 21:37:51,15.08838909,0.0001317,53.2185,17.2315,122.3434,237.7686,0.00061237,9.471e-05,0.0,0 STARLINK-4152,1 53136U 22083E   24112.90129292  .00009471  00000-0  61237-3 0  9990,2 53136  53.2185  17.2315 0001317 122.3434 237.7686 15.08838909 98528,6917.884,95.438,540.66,538.838,0.0
53136.0,STARLINK-4152,PAYLOAD,2024-04-22 03:59:23,15.08876831,0.0001358,53.2186,16.0421,119.9462,240.1665,0.0018186,0.00028803,0.0,0 STARLINK-4152,1 53136U 22083E   24113.16624691  .00028803  00000-0  18186-2 0  9996,2 53136  53.2186  16.0421 0001358 119.9462 240.1665 15.08876831 98208,6917.768,95.435,540.572,538.693,0.0
53136.0,STARLINK-4152,PAYLOAD,2024-04-22 16:42:29,15.08849864,0.0002292,53.2176,13.6597,119.0521,241.0701,0.00089931,0.00014057,0.0,0 STARLINK-4152,1 53136U 22083E   24113.69617249  .00014057  00000-0  89931-3 0  9998,2 53136  53.2176  13.6597 0002292 119.0521 241.0701 15.08849864 98284,6917.85,95.437,541.301,538.13,0.0
53136.0,STARLINK-4152,PAYLOAD,2024-04-22 21:28:38,15.08848382,0.0001192,53.2188,12.7766,94.0427,266.0701,0.0011596,0.00018219,0.0,0 STARLINK-4152,1 53136U 22083E   24113.89489147  .00018219  00000-0  11596-2 0  9999,2 53136  53.2188  12.7766 0001192  94.0427 266.0701 15.08848382 98674,6917.855,95.437,540.544,538.895,0.0
53136.0,STARLINK-4152,PAYLOAD,2024-04-23 02:14:47,15.08869848,0.0001135,53.2189,11.8812,91.045,269.0672,0.0021243,0.0003371,0.0,0 STARLINK-4152,1 53136U 22083E   24114.09360746  .00033710  00000-0  21243-2 0  9998,2 53136  53.2189  11.8812 0001135  91.0450 269.0672 15.08869848 98341,6917.789,95.436,540.439,538.869,0.0
53136.0,STARLINK-4152,PAYLOAD,2024-04-23 21:19:24,15.08866482,0.0002276,53.2176,8.3121,150.3867,209.7254,0.0017101,0.00027053,0.0,0 STARLINK-4152,1 53136U 22083E   24114.88848076  .00027053  00000-0  17101-2 0  9993,2 53136  53.2176   8.3121 0002276 150.3867 209.7254 15.08866482 98820,6917.799,95.436,541.239,538.09,0.0
53136.0,STARLINK-4152,PAYLOAD,2024-04-24 02:05:33,15.08887692,0.0001159,53.2175,7.4187,109.0293,251.0825,0.0023531,0.0003741,0.0,0 STARLINK-4152,1 53136U 22083E   24115.08719798  .00037410  00000-0  23531-2 0  9996,2 53136  53.2175   7.4187 0001159 109.0293 251.0825 15.08887692 98497,6917.735,95.435,540.401,538.798,0.0
53136.0,STARLINK-4152,PAYLOAD,2024-04-24 21:10:12,15.08840224,0.0001032,53.2175,3.8521,73.6509,286.4597,0.0016149,0.00025507,0.0,0 STARLINK-4152,1 53136U 22083E   24115.88209034  .00025507  00000-0  16149-2 0  9992,2 53136  53.2175   3.8521 0001032  73.6509 286.4597 15.08840224 98617,6917.88,95.438,540.459,539.031,0.0
53136.0,STARLINK-4152,PAYLOAD,2024-04-24 22:45:35,15.08844022,0.0001017,53.2174,3.5545,104.2313,255.8793,0.0018489,0.00029263,0.0,0 STARLINK-4152,1 53136U 22083E   24115.94832954  .00029263  00000-0  18489-2 0  9994,2 53136  53.2174   3.5545 0001017 104.2313 255.8793 15.08844022 98984,6917.868,95.437,540.437,539.03,0.0
53136.0,STARLINK-4152,PAYLOAD,2024-04-25 21:01:02,15.08803402,0.0001421,53.2186,359.3839,118.4893,241.6242,0.0016788,0.00026504,0.0,0 STARLINK-4152,1 53136U 22083E   24116.87572488  .00026504  00000-0  16788-2 0  9995,2 53136  53.2186 359.3839 0001421 118.4893 241.6242 15.08803402 98769,6917.992,95.44,540.84,538.874,0.0
53136.0,STARLINK-4152,PAYLOAD,2024-04-25 22:36:26,15.08813743,0.0001713,53.2181,359.0882,64.2023,295.9146,0.0021832,0.00034604,0.0,0 STARLINK-4152,1 53136U 22083E   24116.94196983  .00034604  00000-0  21832-2 0  9991,2 53136  53.2181 359.0882 0001713  64.2023 295.9146 15.08813743 99132,6917.961,95.439,541.011,538.641,0.0
53136.0,STARLINK-4152,PAYLOAD,2024-04-26 09:44:07,15.08864567,0.0001419,53.2185,357.0084,112.9919,247.1223,0.0027015,0.00042998,0.0,0 STARLINK-4152,1 53136U 22083E   24117.40564435  .00042998  00000-0  27015-2 0  9998,2 53136  53.2185 357.0084 0001419 112.9919 247.1223 15.08864567 98848,6917.805,95.436,540.652,538.689,0.0
53136.0,STARLINK-4152,PAYLOAD,2024-04-26 20:51:48,15.08918744,0.0001271,53.2174,354.9269,117.0398,243.0724,0.0034152,0.00054604,0.0,0 STARLINK-4152,1 53136U 22083E   24117.86930711  .00054604  00000-0  34152-2 0  9999,2 53136  53.2174 354.9269 0001271 117.0398 243.0724 15.08918744 99276,6917.64,95.433,540.384,538.625,0.0
53136.0,STARLINK-4152,PAYLOAD,2024-04-27 01:37:56,15.08931584,0.0001115,53.2174,354.0389,86.407,273.705,0.0030393,0.00048538,0.0,0 STARLINK-4152,1 53136U 22083E   24118.06801800  .00048538  00000-0  30393-2 0  9990,2 53136  53.2174 354.0389 0001115  86.4070 273.7050 15.08931584 98945,6917.6,95.432,540.237,538.694,0.0
53136.0,STARLINK-4152,PAYLOAD,2024-04-27 20:42:34,15.08860505,9.04e-05,53.2178,350.4698,121.4024,238.7056,0.0014596,0.00023031,0.0,0 STARLINK-4152,1 53136U 22083E   24118.86289718  .00023031  00000-0  14596-2 0  9994,2 53136  53.2178 350.4698 0000904 121.4024 238.7056 15.08860505 99061,6917.818,95.436,540.308,539.057,0.0
53136.0,STARLINK-4152,PAYLOAD,2024-04-27 22:17:57,15.0884937,0.0001178,53.2181,350.172,114.6238,245.4877,0.0010943,0.00017175,0.0,0 STARLINK-4152,1 53136U 22083E   24118.92913730  .00017175  00000-0  10943-2 0  9993,2 53136  53.2181 350.1720 0001178 114.6238 245.4877 15.08849370 99437,6917.852,95.437,540.532,538.902,0.0
53136.0,STARLINK-4152,PAYLOAD,2024-04-28 07:50:16,15.08827659,0.0001025,53.218,348.3881,109.3869,250.7234,0.003466,0.00055287,0.0,0 STARLINK-4152,1 53136U 22083E   24119.32657927  .00055287  00000-0  34660-2 0  9999,2 53136  53.2180 348.3881 0001025 109.3869 250.7234 15.08827659 99134,6917.918,95.438,540.492,539.074,0.0
53136.0,STARLINK-4152,PAYLOAD,2024-04-28 20:33:21,15.08839694,0.0001342,53.2191,346.0131,122.257,237.8552,0.00036975,5.601e-05,0.0,0 STARLINK-4152,1 53136U 22083E   24119.85650254  .00005601  00000-0  36975-3 0  9990,2 53136  53.2191 346.0131 0001342 122.2570 237.8552 15.08839694 99214,6917.881,95.438,540.675,538.818,0.0
53136.0,STARLINK-4152,PAYLOAD,2024-04-28 22:08:44,15.08840485,0.0001322,53.2192,345.7157,122.0839,238.0282,0.00032718,4.923e-05,0.0,0 STARLINK-4152,1 53136U 22083E   24119.92274215  .00004923  00000-0  32718-3 0  9994,2 53136  53.2192 345.7157 0001322 122.0839 238.0282 15.08840485 99586,6917.879,95.438,540.658,538.829,0.0
53136.0,STARLINK-4152,PAYLOAD,2024-04-29 07:41:03,15.08840596,0.0001302,53.2189,343.9319,123.6792,236.4324,0.00019536,2.823e-05,0.0,0 STARLINK-4152,1 53136U 22083E   24120.32018197  .00002823  00000-0  19536-3 0  9995,2 53136  53.2189 343.9319 0001302 123.6792 236.4324 15.08840596 99644,6917.879,95.438,540.644,538.843,0.0
53136.0,STARLINK-4152,PAYLOAD,2024-04-29 21:59:31,15.08840243,0.0001305,53.2187,341.2555,123.1331,236.9786,0.00012401,1.686e-05,0.0,0 STARLINK-4152,1 53136U 22083E   24120.91634204  .00001686  00000-0  12401-3 0  9993,2 53136  53.2187 341.2555 0001305 123.1331 236.9786 15.08840243 99738,6917.88,95.438,540.647,538.842,0.0
53136.0,STARLINK-4152,PAYLOAD,2024-04-30 07:31:50,15.08844716,0.0001047,53.2184,339.4691,109.7311,250.3794,0.00016786,2.385e-05,0.0,0 STARLINK-4152,1 53136U 22083E   24121.31377969  .00002385  00000-0  16786-3 0  9997,2 53136  53.2184 339.4691 0001047 109.7311 250.3794 15.08844716 99790,6917.866,95.437,540.455,539.007,0.0
53136.0,STARLINK-4152,PAYLOAD,2024-04-30 20:14:55,15.08843065,0.0001147,53.2192,337.0909,110.7599,249.3516,7.9781e-05,9.82e-06,0.0,0 STARLINK-4152,1 53136U 22083E   24121.84370109  .00000982  00000-0  79781-4 0  9990,2 53136  53.2192 337.0909 0001147 110.7599 249.3516 15.08843065 99871,6917.871,95.437,540.53,538.943,0.0
53136.0,STARLINK-4152,PAYLOAD,2024-04-30 23:25:41,15.08846482,0.0001287,53.2195,336.4965,112.1668,247.9461,9.4281e-05,1.213e-05,0.0,0 STARLINK-4152,1 53136U 22083E   24121.97617921  .00001213  00000-0  94281-4 0  9990,2 53136  53.2195 336.4965 0001287 112.1668 247.9461 15.08846482 99539,6917.861,95.437,540.616,538.835,0.0
53136.0,STARLINK-4152,PAYLOAD,2024-05-01 07:22:37,15.08849535,9.44e-05,53.2181,335.0073,89.787,270.3231,0.00015627,2.201e-05,0.0,0 STARLINK-4152,1 53136U 22083E   24122.30737674  .00002201  00000-0  15627-3 0  9990,2 53136  53.2181 335.0073 0000944  89.7870 270.3231 15.08849535 99944,6917.851,95.437,540.369,539.063,0.0
53136.0,STARLINK-4152,PAYLOAD,2024-05-01 20:05:42,15.08850545,9.91e-05,53.2181,332.6283,90.7964,269.3142,0.00025915,3.84e-05,0.0,0 STARLINK-4152,1 53136U 22083E   24122.83729416  .00003840  00000-0  25915-3 0  9994,2 53136  53.2181 332.6283 0000991  90.7964 269.3142 15.08850545100022,6917.848,95.437,540.399,539.028,0.0
53136.0,STARLINK-4152,PAYLOAD,2024-05-02 13:34:56,15.08840983,8.74e-05,53.2141,329.3593,86.7737,273.3355,6.0298e-05,6.72e-06,0.0,0 STARLINK-4152,1 53136U 22083E   24123.56593606  .00000672  00000-0  60298-4 0  9999,2 53136  53.2141 329.3593 0000874  86.7737 273.3355 15.08840983 99773,6917.877,95.437,540.347,539.138,0.0
53136.0,STARLINK-4152,PAYLOAD,2024-05-02 19:56:29,15.08838158,8.99e-05,53.2157,328.1689,83.4898,276.6196,4.7195e-06,-2.13e-06,0.0,0 STARLINK-4152,1 53136U 22083E   24123.83090204 -.00000213  00000-0  47195-5 0  9999,2 53136  53.2157 328.1689 0000899  83.4898 276.6196 15.08838158 99817,6917.886,95.438,540.373,539.129,0.0
